NORAD_CAT_ID,OBJECT_NAME,OBJECT_TYPE,EPOCH,MEAN_MOTION,ECCENTRICITY,INCLINATION,RA_OF_ASC_NODE,ARG_OF_PERICENTER,MEAN_ANOMALY,BSTAR,MEAN_MOTION_DOT,MEAN_MOTION_DDOT,TLE_LINE0,TLE_LINE1,TLE_LINE2,SEMIMAJOR_AXIS,PERIOD,APOGEE,PERIGEE,DECAYED
52999.0,STARLINK-4217,PAYLOAD,2023-10-28 13:35:48,15.08832006,0.0001425,53.2181,8.8321,84.2504,275.865,-3.3679e-05,-8.24e-06,0.0,0 STARLINK-4217,1 52999U 22076P   23301.56653820 -.00000824  00000-0 -33679-4 0  9993,2 52999  53.2181   8.8321 0001425  84.2504 275.8650 15.08832006 72547,6917.905,95.438,540.756,538.784,0.0
52999.0,STARLINK-4217,PAYLOAD,2023-10-28 21:32:44,15.08838454,0.000134,53.2179,7.3451,82.3313,277.7832,2.8515e-05,1.66e-06,0.0,0 STARLINK-4217,1 52999U 22076P   23301.89773330  .00000166  00000-0  28515-4 0  9998,2 52999  53.2179   7.3451 0001340  82.3313 277.7832 15.08838454 72596,6917.885,95.438,540.677,538.823,0.0
52999.0,STARLINK-4217,PAYLOAD,2023-10-29 03:54:16,15.0884596,0.0001496,53.2179,6.1553,92.3887,267.7276,8.8802e-05,1.126e-05,0.0,0 STARLINK-4217,1 52999U 22076P   23302.16268773  .00001126  00000-0  88802-4 0  9991,2 52999  53.2179   6.1553 0001496  92.3887 267.7276 15.08845960 73104,6917.862,95.437,540.762,538.692,0.0
52999.0,STARLINK-4217,PAYLOAD,2023-10-29 11:51:11,15.08860101,0.0001413,53.2168,4.6692,78.2588,281.8562,0.00050331,7.736e-05,0.0,0 STARLINK-4217,1 52999U 22076P   23302.49388199  .00007736  00000-0  50331-3 0  9990,2 52999  53.2168   4.6692 0001413  78.2588 281.8562 15.08860101 73153,6917.819,95.436,540.661,538.706,0.0
52999.0,STARLINK-4217,PAYLOAD,2023-10-29 21:23:30,15.08845244,0.0001546,53.2174,2.8842,80.2463,279.8703,0.00026777,3.977e-05,0.0,0 STARLINK-4217,1 52999U 22076P   23302.89132738  .00003977  00000-0  26777-3 0  9990,2 52999  53.2174   2.8842 0001546  80.2463 279.8703 15.08845244 72748,6917.864,95.437,540.799,538.66,0.0
52999.0,STARLINK-4217,PAYLOAD,2023-10-30 05:20:26,15.08835853,0.0001913,53.2174,1.4007,85.9435,274.1775,5.7795e-05,6.32e-06,0.0,0 STARLINK-4217,1 52999U 22076P   23303.22253302  .00000632  00000-0  57795-4 0  9999,2 52999  53.2174   1.4007 0001913  85.9435 274.1775 15.08835853 73265,6917.893,95.438,541.081,538.435,0.0
52999.0,STARLINK-4217,PAYLOAD,2023-10-30 11:41:59,15.08834444,0.0001602,53.2163,0.2087,88.3014,271.8162,-6.0853e-05,-1.256e-05,0.0,0 STARLINK-4217,1 52999U 22076P   23303.48749240 -.00001256  00000-0 -60853-4 0  9992,2 52999  53.2163   0.2087 0001602  88.3014 271.8162 15.08834444 72834,6917.897,95.438,540.871,538.654,0.0
52999.0,STARLINK-4217,PAYLOAD,2023-10-31 09:57:24,15.08830494,0.0001711,53.217,356.0469,87.5606,272.5582,0.00039111,5.94e-05,0.0,0 STARLINK-4217,1 52999U 22076P   23304.41486410  .00005940  00000-0  39111-3 0  9997,2 52999  53.2170 356.0469 0001711  87.5606 272.5582 15.08830494 73440,6917.909,95.438,540.958,538.591,0.0
52999.0,STARLINK-4217,PAYLOAD,2023-10-31 21:05:06,15.0883935,0.0001701,53.217,353.9644,86.4738,273.6449,0.00051156,7.863e-05,0.0,0 STARLINK-4217,1 52999U 22076P   23304.87854489  .00007863  00000-0  51156-3 0  9991,2 52999  53.2170 353.9644 0001701  86.4738 273.6449 15.08839350 73044,6917.882,95.438,540.924,538.571,0.0
52999.0,STARLINK-4217,PAYLOAD,2023-11-01 09:48:10,15.08856522,0.0001665,53.2175,351.5847,88.1655,271.9528,0.00076582,0.00011927,0.0,0 STARLINK-4217,1 52999U 22076P   23305.40846041  .00011927  00000-0  76582-3 0  9992,2 52999  53.2175 351.5847 0001665  88.1655 271.9528 15.08856522 73593,6917.83,95.437,540.847,538.543,0.0
52999.0,STARLINK-4217,PAYLOAD,2023-11-02 00:06:39,15.08853422,0.0001446,53.2171,348.9088,72.798,287.317,0.00044447,6.795e-05,0.0,0 STARLINK-4217,1 52999U 22076P   23306.00461854  .00006795  00000-0  44447-3 0  9996,2 52999  53.2171 348.9088 0001446  72.7980 287.3170 15.08853422 73683,6917.839,95.437,540.705,538.704,0.0
52999.0,STARLINK-4217,PAYLOAD,2023-11-02 12:49:43,15.08855192,0.0001609,53.2169,346.5284,90.7957,269.3219,0.00031469,4.726e-05,0.0,0 STARLINK-4217,1 52999U 22076P   23306.53453424  .00004726  00000-0  31469-3 0  9990,2 52999  53.2169 346.5284 0001609  90.7957 269.3219 15.08855192 73294,6917.834,95.437,540.812,538.586,0.0
52999.0,STARLINK-4217,PAYLOAD,2023-11-03 03:08:12,15.08837428,0.0001762,53.2179,343.8534,89.0857,271.0337,1.008e-05,-1.28e-06,0.0,0 STARLINK-4217,1 52999U 22076P   23307.13069968 -.00000128  00000-0  10080-4 0  9993,2 52999  53.2179 343.8534 0001762  89.0857 271.0337 15.08837428 73858,6917.888,95.438,540.972,538.534,0.0
52999.0,STARLINK-4217,PAYLOAD,2023-11-03 09:29:45,15.08841268,0.0001672,53.2178,342.6643,88.0045,272.1139,0.00027362,4.069e-05,0.0,0 STARLINK-4217,1 52999U 22076P   23307.39565982  .00004069  00000-0  27362-3 0  9995,2 52999  53.2178 342.6643 0001672  88.0045 272.1139 15.08841268 73425,6917.877,95.437,540.898,538.585,0.0
52999.0,STARLINK-4217,PAYLOAD,2023-11-03 19:02:04,15.08841495,0.0001635,53.2173,340.8805,82.3642,277.7536,0.00035438,5.357e-05,0.0,0 STARLINK-4217,1 52999U 22076P   23307.79310208  .00005357  00000-0  35438-3 0  9992,2 52999  53.2173 340.8805 0001635  82.3642 277.7536 15.08841495 73489,6917.876,95.437,540.872,538.61,0.0
52999.0,STARLINK-4217,PAYLOAD,2023-11-04 10:55:55,15.08851524,0.0001699,53.2171,337.9073,86.2112,273.9074,0.0005651,8.72e-05,0.0,0 STARLINK-4217,1 52999U 22076P   23308.45550006  .00008720  00000-0  56510-3 0  9999,2 52999  53.2171 337.9073 0001699  86.2112 273.9074 15.08851524 74059,6917.845,95.437,540.886,538.535,0.0
52999.0,STARLINK-4217,PAYLOAD,2023-11-04 18:52:51,15.08844216,0.0001793,53.2175,336.4185,90.0854,270.0344,0.00044565,6.812e-05,0.0,0 STARLINK-4217,1 52999U 22076P   23308.78670175  .00006812  00000-0  44565-3 0  9992,2 52999  53.2175 336.4185 0001793  90.0854 270.0344 15.08844216 74106,6917.868,95.437,540.973,538.492,0.0
52999.0,STARLINK-4217,PAYLOAD,2023-11-05 10:46:42,15.08858142,0.0001919,53.2175,333.4462,87.8621,272.2591,0.00059147,9.142e-05,0.0,0 STARLINK-4217,1 52999U 22076P   23309.44909749  .00009142  00000-0  59147-3 0  9999,2 52999  53.2175 333.4462 0001919  87.8621 272.2591 15.08858142 73736,6917.825,95.436,541.017,538.362,0.0
52999.0,STARLINK-4217,PAYLOAD,2023-11-05 18:43:37,15.08850919,0.000186,53.2174,331.9588,79.839,280.2812,0.00030015,4.493e-05,0.0,0 STARLINK-4217,1 52999U 22076P   23309.78029741  .00004493  00000-0  30015-3 0  9998,2 52999  53.2174 331.9588 0001860  79.8390 280.2812 15.08850919 73780,6917.847,95.437,540.999,538.425,0.0
52999.0,STARLINK-4217,PAYLOAD,2023-11-06 01:05:10,15.0885106,0.0002156,53.2183,330.772,84.7108,275.413,0.00031056,4.659e-05,0.0,0 STARLINK-4217,1 52999U 22076P   23310.04525677  .00004659  00000-0  31056-3 0  9998,2 52999  53.2183 330.7720 0002156  84.7108 275.4130 15.08851060 74290,6917.847,95.437,541.203,538.22,0.0
52999.0,STARLINK-4217,PAYLOAD,2023-11-06 09:02:05,15.08863214,0.0001846,53.2169,329.2825,79.6445,280.4756,0.00042617,6.505e-05,0.0,0 STARLINK-4217,1 52999U 22076P   23310.37644953  .00006505  00000-0  42617-3 0  9990,2 52999  53.2169 329.2825 0001846  79.6445 280.4756 15.08863214 73872,6917.809,95.436,540.951,538.397,0.0
52999.0,STARLINK-4217,PAYLOAD,2023-11-06 18:34:25,15.0882921,0.0002062,53.2177,327.4983,78.6642,281.4581,-0.00017003,-2.992e-05,0.0,0 STARLINK-4217,1 52999U 22076P   23310.77390177 -.00002992  00000-0 -17003-3 0  9999,2 52999  53.2177 327.4983 0002062  78.6642 281.4581 15.08829210 74400,6917.913,95.438,541.205,538.352,0.0
52999.0,STARLINK-4217,PAYLOAD,2023-11-07 00:55:59,15.08783695,0.0001389,53.2185,326.308,95.4041,264.711,-0.0011983,-0.00019279,0.0,0 STARLINK-4217,1 52999U 22076P   23311.03887805 -.00019279  00000-0 -11983-2 0  9994,2 52999  53.2185 326.3080 0001389  95.4041 264.7110 15.08783695 74448,6918.052,95.441,540.878,538.957,0.0
52999.0,STARLINK-4217,PAYLOAD,2023-11-07 08:52:55,15.08785389,0.0001457,53.2168,324.8233,87.3088,272.8071,-0.00074432,-0.00012096,0.0,0 STARLINK-4217,1 52999U 22076P   23311.37008607 -.00012096  00000-0 -74432-3 0  9995,2 52999  53.2168 324.8233 0001457  87.3088 272.8071 15.08785389 74492,6918.047,95.441,540.92,538.904,0.0
52999.0,STARLINK-4217,PAYLOAD,2023-11-07 18:25:14,15.08807614,0.0001132,53.2178,323.0382,92.1536,267.9586,0.00032506,4.885e-05,0.0,0 STARLINK-4217,1 52999U 22076P   23311.76753156  .00004885  00000-0  32506-3 0  9995,2 52999  53.2178 323.0382 0001132  92.1536 267.9586 15.08807614 74550,6917.979,95.44,540.627,539.061,0.0
52999.0,STARLINK-4217,PAYLOAD,2023-11-07 23:11:24,15.08830144,0.0001456,53.2168,322.1482,72.6874,287.4277,0.0010471,0.00016411,0.0,0 STARLINK-4217,1 52999U 22076P   23311.96625245  .00016411  00000-0  10471-2 0  9998,2 52999  53.2168 322.1482 0001456  72.6874 287.4277 15.08830144 74588,6917.911,95.438,540.783,538.768,0.0
52999.0,STARLINK-4217,PAYLOAD,2023-11-08 07:08:19,15.0884798,0.0001247,53.2164,320.6601,96.9809,263.1324,0.0014185,0.00022364,0.0,0 STARLINK-4217,1 52999U 22076P   23312.29744809  .00022364  00000-0  14185-2 0  9993,2 52999  53.2164 320.6601 0001247  96.9809 263.1324 15.08847980 74631,6917.856,95.437,540.584,538.858,0.0
52999.0,STARLINK-4217,PAYLOAD,2023-11-08 18:16:00,15.08863184,0.000138,53.2154,318.5831,54.2555,305.8565,0.0010481,0.00016442,0.0,0 STARLINK-4217,1 52999U 22076P   23312.76112256  .00016442  00000-0  10481-2 0  9995,2 52999  53.2154 318.5831 0001380  54.2555 305.8565 15.08863184 74235,6917.81,95.436,540.629,538.72,0.0
52999.0,STARLINK-4217,PAYLOAD,2023-11-09 03:48:19,15.08859297,0.0001236,53.217,316.7954,84.9367,275.1767,0.00068,0.00010556,0.0,0 STARLINK-4217,1 52999U 22076P   23313.15855867  .00010556  00000-0  68000-3 0  9992,2 52999  53.2170 316.7954 0001236  84.9367 275.1767 15.08859297 74761,6917.821,95.436,540.541,538.831,0.0
52999.0,STARLINK-4217,PAYLOAD,2023-11-09 10:09:51,15.08871688,0.00013,53.217,315.6022,105.3084,254.8052,0.00061085,9.455e-05,0.0,0 STARLINK-4217,1 52999U 22076P   23313.42350902  .00009455  00000-0  61085-3 0  9994,2 52999  53.2170 315.6022 0001300 105.3084 254.8052 15.08871688 74333,6917.784,95.436,540.548,538.749,0.0
